[{"OBJECT_NAME":"STARLINK-31861","OBJECT_ID":"2024-100X","EPOCH":"2026-03-09T04:42:32.806656","MEAN_MOTION":15.27559822,"ECCENTRICITY":7.599e-5,"INCLINATION":43.0017,"RA_OF_ASC_NODE":121.043,"ARG_OF_PERICENTER":272.0298,"MEAN_ANOMALY":88.0466,"EPHEMERIS_TYPE":0,"CLASSIFICATION_TYPE":"U","NORAD_CAT_ID":59906,"ELEMENT_SET_NO":999,"REV_AT_EPOCH":10115,"BSTAR":-2.2781301e-5,"MEAN_MOTION_DOT":-8.88e-6,"MEAN_MOTION_DDOT":0},{"OBJECT_NAME":"THORAD AGENA D DEB","OBJECT_ID":"1969-082CP","EPOCH":"2026-03-09T22:51:31.947840","MEAN_MOTION":15.31252047,"ECCENTRICITY":0.00108961,"INCLINATION":69.8927,"RA_OF_ASC_NODE":265.8646,"ARG_OF_PERICENTER":335.0972,"MEAN_ANOMALY":24.9676,"EPHEMERIS_TYPE":0,"CLASSIFICATION_TYPE":"U","NORAD_CAT_ID":4133,"ELEMENT_SET_NO":999,"REV_AT_EPOCH":97550,"BSTAR":0.0018489552,"MEAN_MOTION_DOT":0.00056347,"MEAN_MOTION_DDOT":0}]
